[{"OBJECT_NAME":"CRYOSAT 2","OBJECT_ID":"2010-013A","EPOCH":"2026-03-09T23:23:15.606816","MEAN_MOTION":14.51908976,"ECCENTRICITY":0.00021015,"INCLINATION":92.0227,"RA_OF_ASC_NODE":253.2602,"ARG_OF_PERICENTER":89.6126,"MEAN_ANOMALY":270.5322,"EPHEMERIS_TYPE":0,"CLASSIFICATION_TYPE":"U","NORAD_CAT_ID":36508,"ELEMENT_SET_NO":999,"REV_AT_EPOCH":84368,"BSTAR":7.5819488e-5,"MEAN_MOTION_DOT":3.08e-6,"MEAN_MOTION_DDOT":0},{"OBJECT_NAME":"SL-8 DEB","OBJECT_ID":"1984-056C","EPOCH":"2026-03-09T15:32:23.602560","MEAN_MOTION":14.50142976,"ECCENTRICITY":0.00121212,"INCLINATION":74.0657,"RA_OF_ASC_NODE":255.3452,"ARG_OF_PERICENTER":140.4329,"MEAN_ANOMALY":337.081,"EPHEMERIS_TYPE":0,"CLASSIFICATION_TYPE":"U","NORAD_CAT_ID":15033,"ELEMENT_SET_NO":999,"REV_AT_EPOCH":18794,"BSTAR":0.00047985748,"MEAN_MOTION_DOT":1.839e-5,"MEAN_MOTION_DDOT":0}]
